PAKSAT-1R               
1 37779U 11042A   24267.60581411  .00000141  00000+0  00000+0 0  9992
2 37779   0.0241 102.9230 0001040  49.2976 106.7256  1.00271060 48142
SES-2                   
1 37809U 11049A   24267.58105321 -.00000208  00000+0  00000+0 0  9997
2 37809   0.0367 300.4409 0002584 258.7914 285.8723  1.00271781 47632
ARABSAT-5C              
1 37810U 11049B   24267.33035594  .00000112  00000+0  00000+0 0  9999
2 37810   0.0538   8.9925 0006394 182.4622 310.1350  1.00271516 47712
EUTELSAT 7 WEST A       
1 37816U 11051A   24267.39285609 -.00000072  00000+0  00000+0 0  9994
2 37816   0.0953  47.7144 0006138 146.8298 302.2959  1.00272031 47565
QUETZSAT 1              
1 37826U 11054A   24267.51146203 -.00000254  00000+0  00000+0 0  9990
2 37826   0.0285  65.9452 0002624 138.2895 265.7417  1.00272301 47766
INTELSAT 18 (IS-18)     
1 37834U 11056A   24267.60455056  .00000041  00000+0  00000+0 0  9993
2 37834   0.0174 209.6949 0001841 343.5869 207.2857  1.00273615 47478
EUTELSAT 16A            
1 37836U 11057A   24267.33035594  .00000092  00000+0  00000+0 0  9993
2 37836   0.0689 357.7089 0005237 185.3234 314.5634  1.00271029   990
VIASAT-1                
1 37843U 11059A   24267.52132601 -.00000035  00000+0  00000+0 0  9999
2 37843   0.0173 207.2063 0002407 337.1788 251.0384  1.00270159 40987
ASIASAT 7               
1 37933U 11069A   24267.54777802 -.00000346  00000+0  00000+0 0  9995
2 37933   0.0357 244.8892 0001819 291.2037 129.4934  1.00273700 38522
BEIDOU-2 IGSO-5         
1 37948U 11073A   24267.00778487 -.00000144  00000+0  00000+0 0  9993
2 37948  48.8340 279.3156 0103120 221.5991 320.4351  1.00270618 46798
LUCH-5A                 
1 37951U 11074B   24267.56114663 -.00000059  00000+0  00000+0 0  9994
2 37951   7.1346  83.3989 0004574 102.9887 185.4963  1.00270044 46715
NIGCOMSAT 1R            
1 38014U 11077A   24267.31924462  .00000133  00000+0  00000+0 0  9999
2 38014   0.0444  57.2960 0002395 222.1590 240.6573  1.00271301 46629
FENGYUN 2F              
1 38049U 12002A   24267.59868993 -.00000167  00000+0  00000+0 0  9990
2 38049   5.9806  73.0253 0002477 137.2869  10.0028  0.99140269 46540
WGS F4 (USA 233)        
1 38070U 12003A   24267.57618615 -.00000227  00000+0  00000+0 0  9994
2 38070   0.0174 146.4295 0000823  35.5729 116.7529  1.00270009 37805
SES-4                   
1 38087U 12007A   24267.39841065 -.00000180  00000+0  00000+0 0  9991
2 38087   0.0427  72.7901 0002613 125.9013 285.4844  1.00272004 45897
BEIDOU-2 G5             
1 38091U 12008A   24267.53848184  .00000045  00000+0  00000+0 0  9991
2 38091   1.9994  70.5099 0006978 221.6305 323.3464  1.00269358 46036
MUOS-1                  
1 38093U 12009A   24267.50375069 -.00000138  00000+0  00000+0 0  9992
2 38093   4.2226  45.4594 0051269   3.3481  35.4312  1.00271399 46116
INTELSAT 22 (IS-22)     
1 38098U 12011A   24267.54108823 -.00000071  00000+0  00000+0 0  9992
2 38098   0.0275 137.7307 0001932  67.1819  64.8483  1.00270803   856
APSTAR-7                
1 38107U 12013A   24267.54204391 -.00000114  00000+0  00000+0 0  9990
2 38107   0.0144 154.5715 0002453  48.0571  71.8988  1.00271443 45470
YAHSAT 1B               
1 38245U 12016A   24267.53622295  .00000114  00000+0  00000+0 0  9991
2 38245   0.0302 107.1406 0001996  85.3828  50.9853  1.00271806 39262
AEHF-2 (USA 235)        
1 38254U 12019A   24267.30892036 -.00000144  00000+0  00000+0 0  9995
2 38254   5.1826  61.2491 0003087 106.4583 289.6624  1.00272331   651
JCSAT-13                
1 38331U 12023A   24267.55142699 -.00000369  00000+0  00000+0 0  9995
2 38331   0.0174 170.0366 0002398  25.3039 130.0641  1.00272492 45202
VINASAT-2               
1 38332U 12023B   24267.55299083 -.00000341  00000+0  00000+0 0  9996
2 38332   0.0267 311.8121 0002080 231.1160 150.8876  1.00272003 40326
NIMIQ 6                 
1 38342U 12026A   24267.58018441 -.00000186  00000+0  00000+0 0  9997
2 38342   0.0183 129.4079 0002836  71.0879 280.1810  1.00271828 44082
ZHONGXING-2A            
1 38352U 12028A   24267.54702035 -.00000305  00000+0  00000+0 0  9998
2 38352   0.0382  85.9797 0003739 221.4278 350.6639  1.00272386 45043
INTELSAT 19 (IS-19)     
1 38356U 12030A   24267.55919975 -.00000069  00000+0  00000+0 0  9996
2 38356   0.0146 235.8339 0003068 311.8897 182.4839  1.00272008 44109
ECHOSTAR 17             
1 38551U 12035A   24267.57705671 -.00000087  00000+0  00000+0 0  9996
2 38551   0.0190 162.7834 0002053  19.6412 281.1190  1.00270246 44730
METEOSAT-10 (MSG-3)     
1 38552U 12035B   24267.38355059 -.00000016  00000+0  00000+0 0  9999
2 38552   3.1861  61.5046 0001068 216.2866 223.1503  1.00274483 44522
SES-5                   
1 38652U 12036A   24267.59929809  .00000022  00000+0  00000+0 0  9990
2 38652   0.0722 295.9301 0002093 259.4781  28.2555  1.00271562 38143
INTELSAT 20 (IS-20)     
1 38740U 12043A   24267.50604890 -.00000037  00000+0  00000+0 0  9994
2 38740   0.0094 177.0899 0001842 351.6637  84.7773  1.00271534 44416
HYLAS 2                 
1 38741U 12043B   24267.55882448 -.00000275  00000+0  00000+0 0  9991
2 38741   0.7876  88.8682 0002939 139.0526 118.6442  1.00269901 44431
INTELSAT 21 (IS-21)     
1 38749U 12045A   24267.29090826 -.00000296  00000+0  00000+0 0  9996
2 38749   0.0290 100.1624 0002209  98.3625 210.8380  1.00271932 44188
