OBJECT_NAME,OBJECT_ID,EPOCH,MEAN_MOTION,ECCENTRICITY,INCLINATION,RA_OF_ASC_NODE,ARG_OF_PERICENTER,MEAN_ANOMALY,EPHEMERIS_TYPE,CLASSIFICATION_TYPE,NORAD_CAT_ID,ELEMENT_SET_NO,REV_AT_EPOCH,BSTAR,MEAN_MOTION_DOT,MEAN_MOTION_DDOT
PAKSAT-1R,2011-042A,2024-09-23T14:32:22.339104,1.00271060,.000104,0.0241,102.9230,49.2976,106.7256,0,U,37779,999,4814,0,.141E-5,0
SES-2,2011-049A,2024-09-23T13:56:42.997344,1.00271781,.0002584,0.0367,300.4409,258.7914,285.8723,0,U,37809,999,4763,0,-.208E-5,0
ARABSAT-5C,2011-049B,2024-09-23T07:55:42.753216,1.00271516,.0006394,0.0538,8.9925,182.4622,310.1350,0,U,37810,999,4771,0,.112E-5,0
EUTELSAT 7 WEST A,2011-051A,2024-09-23T09:25:42.766176,1.00272031,.0006138,0.0953,47.7144,146.8298,302.2959,0,U,37816,999,4756,0,-.72E-6,0
QUETZSAT 1,2011-054A,2024-09-23T12:16:30.319392,1.00272301,.0002624,0.0285,65.9452,138.2895,265.7417,0,U,37826,999,4776,0,-.254E-5,0
INTELSAT 18 (IS-18),2011-056A,2024-09-23T14:30:33.168384,1.00273615,.0001841,0.0174,209.6949,343.5869,207.2857,0,U,37834,999,4747,0,.41E-6,0
EUTELSAT 16A,2011-057A,2024-09-23T07:55:42.753216,1.00271029,.0005237,0.0689,357.7089,185.3234,314.5634,0,U,37836,999,99,0,.92E-6,0
VIASAT-1,2011-059A,2024-09-23T12:30:42.567264,1.00270159,.0002407,0.0173,207.2063,337.1788,251.0384,0,U,37843,999,4098,0,-.35E-6,0
ASIASAT 7,2011-069A,2024-09-23T13:08:48.020928,1.00273700,.0001819,0.0357,244.8892,291.2037,129.4934,0,U,37933,999,3852,0,-.346E-5,0
BEIDOU-2 IGSO-5,2011-073A,2024-09-23T00:11:12.612768,1.00270618,.010312,48.8340,279.3156,221.5991,320.4351,0,U,37948,999,4679,0,-.144E-5,0
LUCH-5A,2011-074B,2024-09-23T13:28:03.068832,1.00270044,.0004574,7.1346,83.3989,102.9887,185.4963,0,U,37951,999,4671,0,-.59E-6,0
NIGCOMSAT 1R,2011-077A,2024-09-23T07:39:42.735168,1.00271301,.0002395,0.0444,57.2960,222.1590,240.6573,0,U,38014,999,4662,0,.133E-5,0
FENGYUN 2F,2012-002A,2024-09-23T14:22:06.809952,0.99140269,.0002477,5.9806,73.0253,137.2869,10.0028,0,U,38049,999,4654,0,-.167E-5,0
WGS F4 (USA 233),2012-003A,2024-09-23T13:49:42.483360,1.00270009,.0000823,0.0174,146.4295,35.5729,116.7529,0,U,38070,999,3780,0,-.227E-5,0
SES-4,2012-007A,2024-09-23T09:33:42.680160,1.00272004,.0002613,0.0427,72.7901,125.9013,285.4844,0,U,38087,999,4589,0,-.18E-5,0
BEIDOU-2 G5,2012-008A,2024-09-23T12:55:24.830976,1.00269358,.0006978,1.9994,70.5099,221.6305,323.3464,0,U,38091,999,4603,0,.45E-6,0
MUOS-1,2012-009A,2024-09-23T12:05:24.059616,1.00271399,.0051269,4.2226,45.4594,3.3481,35.4312,0,U,38093,999,4611,0,-.138E-5,0
INTELSAT 22 (IS-22),2012-011A,2024-09-23T12:59:10.023072,1.00270803,.0001932,0.0275,137.7307,67.1819,64.8483,0,U,38098,999,85,0,-.71E-6,0
APSTAR-7,2012-013A,2024-09-23T13:00:32.593824,1.00271443,.0002453,0.0144,154.5715,48.0571,71.8988,0,U,38107,999,4547,0,-.114E-5,0
YAHSAT 1B,2012-016A,2024-09-23T12:52:09.662880,1.00271806,.0001996,0.0302,107.1406,85.3828,50.9853,0,U,38245,999,3926,0,.114E-5,0
AEHF-2 (USA 235),2012-019A,2024-09-23T07:24:50.719104,1.00272331,.0003087,5.1826,61.2491,106.4583,289.6624,0,U,38254,999,65,0,-.144E-5,0
JCSAT-13,2012-023A,2024-09-23T13:14:03.291936,1.00272492,.0002398,0.0174,170.0366,25.3039,130.0641,0,U,38331,999,4520,0,-.369E-5,0
VINASAT-2,2012-023B,2024-09-23T13:16:18.407712,1.00272003,.000208,0.0267,311.8121,231.1160,150.8876,0,U,38332,999,4032,0,-.341E-5,0
NIMIQ 6,2012-026A,2024-09-23T13:55:27.933024,1.00271828,.0002836,0.0183,129.4079,71.0879,280.1810,0,U,38342,999,4408,0,-.186E-5,0
ZHONGXING-2A,2012-028A,2024-09-23T13:07:42.558240,1.00272386,.0003739,0.0382,85.9797,221.4278,350.6639,0,U,38352,999,4504,0,-.305E-5,0
INTELSAT 19 (IS-19),2012-030A,2024-09-23T13:25:14.858400,1.00272008,.0003068,0.0146,235.8339,311.8897,182.4839,0,U,38356,999,4410,0,-.69E-6,0
ECHOSTAR 17,2012-035A,2024-09-23T13:50:57.699744,1.00270246,.0002053,0.0190,162.7834,19.6412,281.1190,0,U,38551,999,4473,0,-.87E-6,0
METEOSAT-10 (MSG-3),2012-035B,2024-09-23T09:12:18.770976,1.00274483,.0001068,3.1861,61.5046,216.2866,223.1503,0,U,38552,999,4452,0,-.16E-6,0
SES-5,2012-036A,2024-09-23T14:22:59.354976,1.00271562,.0002093,0.0722,295.9301,259.4781,28.2555,0,U,38652,999,3814,0,.22E-6,0
INTELSAT 20 (IS-20),2012-043A,2024-09-23T12:08:42.624960,1.00271534,.0001842,0.0094,177.0899,351.6637,84.7773,0,U,38740,999,4441,0,-.37E-6,0
HYLAS 2,2012-043B,2024-09-23T13:24:42.435072,1.00269901,.0002939,0.7876,88.8682,139.0526,118.6442,0,U,38741,999,4443,0,-.275E-5,0
INTELSAT 21 (IS-21),2012-045A,2024-09-23T06:58:54.473664,1.00271932,.0002209,0.0290,100.1624,98.3625,210.8380,0,U,38749,999,4418,0,-.296E-5,0
